[{"OBJECT_NAME":"CONTINUUM-1","OBJECT_ID":"2023-001AN","EPOCH":"2026-03-09T23:17:35.458656","MEAN_MOTION":15.27981258,"ECCENTRICITY":0.00109493,"INCLINATION":97.3456,"RA_OF_ASC_NODE":133.3964,"ARG_OF_PERICENTER":60.1976,"MEAN_ANOMALY":300.0351,"EPHEMERIS_TYPE":0,"CLASSIFICATION_TYPE":"U","NORAD_CAT_ID":55045,"ELEMENT_SET_NO":999,"REV_AT_EPOCH":17709,"BSTAR":0.00052859897,"MEAN_MOTION_DOT":0.00014395,"MEAN_MOTION_DDOT":0},{"OBJECT_NAME":"STARLINK-32413","OBJECT_ID":"2024-187S","EPOCH":"2026-03-09T06:17:15.794304","MEAN_MOTION":15.30183449,"ECCENTRICITY":0.00014124,"INCLINATION":53.1606,"RA_OF_ASC_NODE":67.3298,"ARG_OF_PERICENTER":80.6883,"MEAN_ANOMALY":279.4278,"EPHEMERIS_TYPE":0,"CLASSIFICATION_TYPE":"U","NORAD_CAT_ID":61590,"ELEMENT_SET_NO":999,"REV_AT_EPOCH":7901,"BSTAR":6.3342625e-5,"MEAN_MOTION_DOT":1.516e-5,"MEAN_MOTION_DDOT":0}]
